SENTINEL-6A             
1 46984U 20086A   26190.10289723 -.00000071  00000+0 -41417-4 0  9997
2 46984  66.0415  89.5347 0007817 270.0066  90.0053 12.80930079263136
SENTINEL-6B             
1 66514U 25264A   26190.18132107 -.00000071  00000+0 -42009-4 0  9990
2 66514  66.0415  89.4979 0007882 268.8305  91.1807 12.80930087 29981
